HORYU-4                 
1 41340U 16012D   26094.73384174  .00149269  00000+0  12395-2 0  9992
2 41340  30.9906 245.1528 0005971  36.9378 323.1687 15.68596223559192
ZIYUAN 3-02 (ZY 3-02)   
1 41556U 16033A   26094.91858616  .00008090  00000+0  36318-3 0  9999
2 41556  97.3859 172.0866 0013593 187.2521 172.8520 15.21353787546845
CARTOSAT-2C             
1 41599U 16040A   26094.42453988  .00006814  00000+0  32644-3 0  9993
2 41599  97.4558 155.3871 0009997  37.7436 322.4498 15.19209947542518
LAPAN-A3                
1 41603U 16040E   26094.94718580  .00004987  00000+0  16057-3 0  9997
2 41603  97.1491  93.5297 0008355 280.2026  79.8274 15.32621730543596
GAOFEN-3                
1 41727U 16049A   26094.95968581 -.00000076  00000+0 -10017-4 0  9990
2 41727  98.4040 103.8429 0001584  70.8613 289.2748 14.42222574508093
PRATHAM                 
1 41783U 16059A   26094.92793978  .00001178  00000+0  21636-3 0  9996
2 41783  97.8328  95.0126 0032794  91.9705 268.5256 14.67091605508771
ALSAT-1N                
1 41789U 16059G   26094.97269644  .00001679  00000+0  29163-3 0  9994
2 41789  97.8028 101.5864 0027369  63.5077 296.8932 14.69183768509258
CAS-2T & KS-1Q          
1 41847U 16066G   26094.82035154  .00001280  00000+0  18887-3 0  9997
2 41847  98.3849 171.3805 0342118 352.3694   7.2366 14.44539623494207
YUNHAI-1 01             
1 41857U 16068A   26094.97595142  .00000312  00000+0  13080-3 0  9999
2 41857  98.5871 106.6526 0004142 245.9751 114.0999 14.32688579491342
RESOURCESAT-2A          
1 41877U 16074A   26094.94345968  .00000057  00000+0  46351-4 0  9998
2 41877  98.7562 169.0353 0001098 310.3733  49.7348 14.21611250483891
TANSAT                  
1 41898U 16081A   26094.98226330  .00000616  00000+0  13893-3 0  9999
2 41898  98.5369  93.0815 0020506 171.8302 188.3235 14.59892714493942
JILIN-1 03              
1 41914U 17002B   26094.95818171  .00016976  00000+0  42916-3 0  9993
2 41914  97.1983 103.1633 0008172  82.6797 277.5378 15.39820669510589
CARTOSAT-2D             
1 41948U 17008A   26092.15239628  .00000233  00000+0  14239-4 0  9997
2 41948  97.4190 152.8466 0005833 141.2675 218.8979 15.19319362506033
CARTOSAT-2E             
1 42767U 17036C   26094.07949476  .00000200  00000+0  12647-4 0  9995
2 42767  97.4352 155.0745 0003518 187.0170 173.1016 15.19322845486890
D-SAT                   
1 42794U 17036AF  26094.92694898  .00011822  00000+0  56338-3 0  9990
2 42794  97.5522  74.1127 0085018  56.4442 304.4872 15.16052670479750
IRIDIUM 113             
1 42803U 17039A   26094.77411051 -.00000170  00000+0 -67813-4 0  9992
2 42803  86.4017 352.8636 0001796  79.4606 280.6792 14.34219119460664
