[{"OBJECT_NAME":"HORYU-4","OBJECT_ID":"2016-012D","EPOCH":"2026-04-04T17:36:43.926336","MEAN_MOTION":15.68596223,"ECCENTRICITY":0.00059717,"INCLINATION":30.9906,"RA_OF_ASC_NODE":245.1528,"ARG_OF_PERICENTER":36.9378,"MEAN_ANOMALY":323.1687,"EPHEMERIS_TYPE":0,"CLASSIFICATION_TYPE":"U","NORAD_CAT_ID":41340,"ELEMENT_SET_NO":999,"REV_AT_EPOCH":55919,"BSTAR":0.0012395035,"MEAN_MOTION_DOT":0.00149269,"MEAN_MOTION_DDOT":0},{"OBJECT_NAME":"ZIYUAN 3-02 (ZY 3-02)","OBJECT_ID":"2016-033A","EPOCH":"2026-04-04T22:02:45.844224","MEAN_MOTION":15.21353787,"ECCENTRICITY":0.0013593,"INCLINATION":97.3859,"RA_OF_ASC_NODE":172.0866,"ARG_OF_PERICENTER":187.2521,"MEAN_ANOMALY":172.852,"EPHEMERIS_TYPE":0,"CLASSIFICATION_TYPE":"U","NORAD_CAT_ID":41556,"ELEMENT_SET_NO":999,"REV_AT_EPOCH":54684,"BSTAR":0.00036317748,"MEAN_MOTION_DOT":8.09e-5,"MEAN_MOTION_DDOT":0},{"OBJECT_NAME":"CARTOSAT-2C","OBJECT_ID":"2016-040A","EPOCH":"2026-04-04T10:11:20.245632","MEAN_MOTION":15.19209947,"ECCENTRICITY":0.00099975,"INCLINATION":97.4558,"RA_OF_ASC_NODE":155.3871,"ARG_OF_PERICENTER":37.7436,"MEAN_ANOMALY":322.4498,"EPHEMERIS_TYPE":0,"CLASSIFICATION_TYPE":"U","NORAD_CAT_ID":41599,"ELEMENT_SET_NO":999,"REV_AT_EPOCH":54251,"BSTAR":0.00032644307,"MEAN_MOTION_DOT":6.814e-5,"MEAN_MOTION_DDOT":0},{"OBJECT_NAME":"LAPAN-A3","OBJECT_ID":"2016-040E","EPOCH":"2026-04-04T22:43:56.853120","MEAN_MOTION":15.3262173,"ECCENTRICITY":0.00083558,"INCLINATION":97.1491,"RA_OF_ASC_NODE":93.5297,"ARG_OF_PERICENTER":280.2026,"MEAN_ANOMALY":79.8274,"EPHEMERIS_TYPE":0,"CLASSIFICATION_TYPE":"U","NORAD_CAT_ID":41603,"ELEMENT_SET_NO":999,"REV_AT_EPOCH":54359,"BSTAR":0.00016056715,"MEAN_MOTION_DOT":4.987e-5,"MEAN_MOTION_DDOT":0},{"OBJECT_NAME":"GAOFEN-3","OBJECT_ID":"2016-049A","EPOCH":"2026-04-04T23:01:56.853984","MEAN_MOTION":14.42222574,"ECCENTRICITY":0.00015848,"INCLINATION":98.404,"RA_OF_ASC_NODE":103.8429,"ARG_OF_PERICENTER":70.8613,"MEAN_ANOMALY":289.2748,"EPHEMERIS_TYPE":0,"CLASSIFICATION_TYPE":"U","NORAD_CAT_ID":41727,"ELEMENT_SET_NO":999,"REV_AT_EPOCH":50809,"BSTAR":-1.0016719e-5,"MEAN_MOTION_DOT":-7.6e-7,"MEAN_MOTION_DDOT":0},{"OBJECT_NAME":"PRATHAM","OBJECT_ID":"2016-059A","EPOCH":"2026-04-04T22:16:13.996992","MEAN_MOTION":14.67091605,"ECCENTRICITY":0.0032794,"INCLINATION":97.8328,"RA_OF_ASC_NODE":95.0126,"ARG_OF_PERICENTER":91.9705,"MEAN_ANOMALY":268.5256,"EPHEMERIS_TYPE":0,"CLASSIFICATION_TYPE":"U","NORAD_CAT_ID":41783,"ELEMENT_SET_NO":999,"REV_AT_EPOCH":50877,"BSTAR":0.00021636047,"MEAN_MOTION_DOT":1.178e-5,"MEAN_MOTION_DDOT":0},{"OBJECT_NAME":"ALSAT-1N","OBJECT_ID":"2016-059G","EPOCH":"2026-04-04T23:20:40.972416","MEAN_MOTION":14.69183768,"ECCENTRICITY":0.00273697,"INCLINATION":97.8028,"RA_OF_ASC_NODE":101.5864,"ARG_OF_PERICENTER":63.5077,"MEAN_ANOMALY":296.8932,"EPHEMERIS_TYPE":0,"CLASSIFICATION_TYPE":"U","NORAD_CAT_ID":41789,"ELEMENT_SET_NO":999,"REV_AT_EPOCH":50925,"BSTAR":0.00029163243,"MEAN_MOTION_DOT":1.679e-5,"MEAN_MOTION_DDOT":0},{"OBJECT_NAME":"CAS-2T & KS-1Q","OBJECT_ID":"2016-066G","EPOCH":"2026-04-04T19:41:18.373056","MEAN_MOTION":14.44539623,"ECCENTRICITY":0.03421185,"INCLINATION":98.3849,"RA_OF_ASC_NODE":171.3805,"ARG_OF_PERICENTER":352.3694,"MEAN_ANOMALY":7.2366,"EPHEMERIS_TYPE":0,"CLASSIFICATION_TYPE":"U","NORAD_CAT_ID":41847,"ELEMENT_SET_NO":999,"REV_AT_EPOCH":49420,"BSTAR":0.00018887479,"MEAN_MOTION_DOT":1.28e-5,"MEAN_MOTION_DDOT":0},{"OBJECT_NAME":"YUNHAI-1 01","OBJECT_ID":"2016-068A","EPOCH":"2026-04-04T23:25:22.202688","MEAN_MOTION":14.32688579,"ECCENTRICITY":0.00041422,"INCLINATION":98.5871,"RA_OF_ASC_NODE":106.6526,"ARG_OF_PERICENTER":245.9751,"MEAN_ANOMALY":114.0999,"EPHEMERIS_TYPE":0,"CLASSIFICATION_TYPE":"U","NORAD_CAT_ID":41857,"ELEMENT_SET_NO":999,"REV_AT_EPOCH":49134,"BSTAR":0.00013079702,"MEAN_MOTION_DOT":3.12e-6,"MEAN_MOTION_DDOT":0},{"OBJECT_NAME":"RESOURCESAT-2A","OBJECT_ID":"2016-074A","EPOCH":"2026-04-04T22:38:34.916352","MEAN_MOTION":14.2161125,"ECCENTRICITY":0.00010982,"INCLINATION":98.7562,"RA_OF_ASC_NODE":169.0353,"ARG_OF_PERICENTER":310.3733,"MEAN_ANOMALY":49.7348,"EPHEMERIS_TYPE":0,"CLASSIFICATION_TYPE":"U","NORAD_CAT_ID":41877,"ELEMENT_SET_NO":999,"REV_AT_EPOCH":48389,"BSTAR":4.6351477e-5,"MEAN_MOTION_DOT":5.7e-7,"MEAN_MOTION_DDOT":0},{"OBJECT_NAME":"TANSAT","OBJECT_ID":"2016-081A","EPOCH":"2026-04-04T23:34:27.549120","MEAN_MOTION":14.59892714,"ECCENTRICITY":0.00205066,"INCLINATION":98.5369,"RA_OF_ASC_NODE":93.0815,"ARG_OF_PERICENTER":171.8302,"MEAN_ANOMALY":188.3235,"EPHEMERIS_TYPE":0,"CLASSIFICATION_TYPE":"U","NORAD_CAT_ID":41898,"ELEMENT_SET_NO":999,"REV_AT_EPOCH":49394,"BSTAR":0.00013892639,"MEAN_MOTION_DOT":6.16e-6,"MEAN_MOTION_DDOT":0},{"OBJECT_NAME":"JILIN-1 03","OBJECT_ID":"2017-002B","EPOCH":"2026-04-04T22:59:46.899744","MEAN_MOTION":15.39820669,"ECCENTRICITY":0.00081724,"INCLINATION":97.1983,"RA_OF_ASC_NODE":103.1633,"ARG_OF_PERICENTER":82.6797,"MEAN_ANOMALY":277.5378,"EPHEMERIS_TYPE":0,"CLASSIFICATION_TYPE":"U","NORAD_CAT_ID":41914,"ELEMENT_SET_NO":999,"REV_AT_EPOCH":51058,"BSTAR":0.00042916196,"MEAN_MOTION_DOT":0.00016976,"MEAN_MOTION_DDOT":0},{"OBJECT_NAME":"CARTOSAT-2D","OBJECT_ID":"2017-008A","EPOCH":"2026-04-02T03:39:27.038592","MEAN_MOTION":15.19319362,"ECCENTRICITY":0.00058333,"INCLINATION":97.419,"RA_OF_ASC_NODE":152.8466,"ARG_OF_PERICENTER":141.2675,"MEAN_ANOMALY":218.8979,"EPHEMERIS_TYPE":0,"CLASSIFICATION_TYPE":"U","NORAD_CAT_ID":41948,"ELEMENT_SET_NO":999,"REV_AT_EPOCH":50603,"BSTAR":1.4238816e-5,"MEAN_MOTION_DOT":2.33e-6,"MEAN_MOTION_DDOT":0},{"OBJECT_NAME":"CARTOSAT-2E","OBJECT_ID":"2017-036C","EPOCH":"2026-04-04T01:54:28.347264","MEAN_MOTION":15.19322845,"ECCENTRICITY":0.00035187,"INCLINATION":97.4352,"RA_OF_ASC_NODE":155.0745,"ARG_OF_PERICENTER":187.017,"MEAN_ANOMALY":173.1016,"EPHEMERIS_TYPE":0,"CLASSIFICATION_TYPE":"U","NORAD_CAT_ID":42767,"ELEMENT_SET_NO":999,"REV_AT_EPOCH":48689,"BSTAR":1.2646738e-5,"MEAN_MOTION_DOT":2.0e-6,"MEAN_MOTION_DDOT":0},{"OBJECT_NAME":"D-SAT","OBJECT_ID":"2017-036AF","EPOCH":"2026-04-04T22:14:48.391872","MEAN_MOTION":15.1605267,"ECCENTRICITY":0.00850181,"INCLINATION":97.5522,"RA_OF_ASC_NODE":74.1127,"ARG_OF_PERICENTER":56.4442,"MEAN_ANOMALY":304.4872,"EPHEMERIS_TYPE":0,"CLASSIFICATION_TYPE":"U","NORAD_CAT_ID":42794,"ELEMENT_SET_NO":999,"REV_AT_EPOCH":47975,"BSTAR":0.00056338218,"MEAN_MOTION_DOT":0.00011822,"MEAN_MOTION_DDOT":0},{"OBJECT_NAME":"IRIDIUM 113","OBJECT_ID":"2017-039A","EPOCH":"2026-04-04T18:34:43.148064","MEAN_MOTION":14.34219119,"ECCENTRICITY":0.00017964,"INCLINATION":86.4017,"RA_OF_ASC_NODE":352.8636,"ARG_OF_PERICENTER":79.4606,"MEAN_ANOMALY":280.6792,"EPHEMERIS_TYPE":0,"CLASSIFICATION_TYPE":"U","NORAD_CAT_ID":42803,"ELEMENT_SET_NO":999,"REV_AT_EPOCH":46066,"BSTAR":-6.7812805e-5,"MEAN_MOTION_DOT":-1.7e-6,"MEAN_MOTION_DDOT":0}]
